{"type": "FeatureCollection", "features": [{"type": "Feature", "properties": {"block_id": "A-1", "zone": "A", "planted_count": 115}, "geometry": {"type": "Polygon", "coordinates": [[[80.4, 7.2], [80.4008, 7.2], [80.4008, 7.2009], [80.4, 7.2009], [80.4, 7.2]]]}}, {"type": "Feature", "properties": {"block_id": "A-2", "zone": "A", "planted_count": 115}, "geometry": {"type": "Polygon", "coordinates": [[[80.4008, 7.2], [80.4016, 7.2], [80.4016, 7.2009], [80.4008, 7.2009], [80.4008, 7.2]]]}}, {"type": "Feature", "properties": {"block_id": "A-3", "zone": "A", "planted_count": 115}, "geometry": {"type": "Polygon", "coordinates": [[[80.4016, 7.2], [80.4024, 7.2], [80.4024, 7.2009], [80.4016, 7.2009], [80.4016, 7.2]]]}}, {"type": "Feature", "properties": {"block_id": "A-4", "zone": "A", "planted_count": 115}, "geometry": {"type": "Polygon", "coordinates": [[[80.4024, 7.2], [80.4032, 7.2], [80.4032, 7.2009], [80.4024, 7.2009], [80.4024, 7.2]]]}}, {"type": "Feature", "properties": {"block_id": "A-5", "zone": "A", "planted_count": 115}, "geometry": {"type": "Polygon", "coordinates": [[[80.40320000000001, 7.2], [80.40400000000001, 7.2], [80.40400000000001, 7.2009], [80.40320000000001, 7.2009], [80.40320000000001, 7.2]]]}}, {"type": "Feature", "properties": {"block_id": "B-1", "zone": "B", "planted_count": 115}, "geometry": {"type": "Polygon", "coordinates": [[[80.4, 7.2009], [80.4008, 7.2009], [80.4008, 7.2017999999999995], [80.4, 7.2017999999999995], [80.4, 7.2009]]]}}, {"type": "Feature", "properties": {"block_id": "B-2", "zone": "B", "planted_count": 115}, "geometry": {"type": "Polygon", "coordinates": [[[80.4008, 7.2009], [80.4016, 7.2009], [80.4016, 7.2017999999999995], [80.4008, 7.2017999999999995], [80.4008, 7.2009]]]}}, {"type": "Feature", "properties": {"block_id": "B-3", "zone": "B", "planted_count": 115}, "geometry": {"type": "Polygon", "coordinates": [[[80.4016, 7.2009], [80.4024, 7.2009], [80.4024, 7.2017999999999995], [80.4016, 7.2017999999999995], [80.4016, 7.2009]]]}}, {"type": "Feature", "properties": {"block_id": "B-4", "zone": "B", "planted_count": 115}, "geometry": {"type": "Polygon", "coordinates": [[[80.4024, 7.2009], [80.4032, 7.2009], [80.4032, 7.2017999999999995], [80.4024, 7.2017999999999995], [80.4024, 7.2009]]]}}, {"type": "Feature", "properties": {"block_id": "B-5", "zone": "B", "planted_count": 115}, "geometry": {"type": "Polygon", "coordinates": [[[80.40320000000001, 7.2009], [80.40400000000001, 7.2009], [80.40400000000001, 7.2017999999999995], [80.40320000000001, 7.2017999999999995], [80.40320000000001, 7.2009]]]}}, {"type": "Feature", "properties": {"block_id": "B-6", "zone": "B", "planted_count": 115}, "geometry": {"type": "Polygon", "coordinates": [[[80.40400000000001, 7.2009], [80.40480000000001, 7.2009], [80.40480000000001, 7.2017999999999995], [80.40400000000001, 7.2017999999999995], [80.40400000000001, 7.2009]]]}}, {"type": "Feature", "properties": {"block_id": "C-1", "zone": "C", "planted_count": 115}, "geometry": {"type": "Polygon", "coordinates": [[[80.4, 7.2018], [80.4008, 7.2018], [80.4008, 7.2027], [80.4, 7.2027], [80.4, 7.2018]]]}}, {"type": "Feature", "properties": {"block_id": "C-2", "zone": "C", "planted_count": 115}, "geometry": {"type": "Polygon", "coordinates": [[[80.4008, 7.2018], [80.4016, 7.2018], [80.4016, 7.2027], [80.4008, 7.2027], [80.4008, 7.2018]]]}}, {"type": "Feature", "properties": {"block_id": "C-3", "zone": "C", "planted_count": 115}, "geometry": {"type": "Polygon", "coordinates": [[[80.4016, 7.2018], [80.4024, 7.2018], [80.4024, 7.2027], [80.4016, 7.2027], [80.4016, 7.2018]]]}}, {"type": "Feature", "properties": {"block_id": "C-4", "zone": "C", "planted_count": 115}, "geometry": {"type": "Polygon", "coordinates": [[[80.4024, 7.2018], [80.4032, 7.2018], [80.4032, 7.2027], [80.4024, 7.2027], [80.4024, 7.2018]]]}}, {"type": "Feature", "properties": {"block_id": "D-1", "zone": "D", "planted_count": 115}, "geometry": {"type": "Polygon", "coordinates": [[[80.4, 7.2027], [80.4008, 7.2027], [80.4008, 7.2036], [80.4, 7.2036], [80.4, 7.2027]]]}}, {"type": "Feature", "properties": {"block_id": "D-2", "zone": "D", "planted_count": 115}, "geometry": {"type": "Polygon", "coordinates": [[[80.4008, 7.2027], [80.4016, 7.2027], [80.4016, 7.2036], [80.4008, 7.2036], [80.4008, 7.2027]]]}}, {"type": "Feature", "properties": {"block_id": "D-3", "zone": "D", "planted_count": 115}, "geometry": {"type": "Polygon", "coordinates": [[[80.4016, 7.2027], [80.4024, 7.2027], [80.4024, 7.2036], [80.4016, 7.2036], [80.4016, 7.2027]]]}}, {"type": "Feature", "properties": {"block_id": "D-4", "zone": "D", "planted_count": 115}, "geometry": {"type": "Polygon", "coordinates": [[[80.4024, 7.2027], [80.4032, 7.2027], [80.4032, 7.2036], [80.4024, 7.2036], [80.4024, 7.2027]]]}}]}