{"type": "FeatureCollection", "features": [{"type": "Feature", "properties": {"zone": "A"}, "geometry": {"type": "Polygon", "coordinates": [[[80.4, 7.2], [80.40400000000001, 7.2], [80.40400000000001, 7.2009], [80.4, 7.2009], [80.4, 7.2]]]}}, {"type": "Feature", "properties": {"zone": "B"}, "geometry": {"type": "Polygon", "coordinates": [[[80.4, 7.2009], [80.40480000000001, 7.2009], [80.40480000000001, 7.2017999999999995], [80.4, 7.2017999999999995], [80.4, 7.2009]]]}}, {"type": "Feature", "properties": {"zone": "C"}, "geometry": {"type": "Polygon", "coordinates": [[[80.4, 7.2018], [80.40320000000001, 7.2018], [80.40320000000001, 7.2027], [80.4, 7.2027], [80.4, 7.2018]]]}}, {"type": "Feature", "properties": {"zone": "D"}, "geometry": {"type": "Polygon", "coordinates": [[[80.4, 7.2027], [80.40320000000001, 7.2027], [80.40320000000001, 7.2036], [80.4, 7.2036], [80.4, 7.2027]]]}}]}